{
  "type": "FeatureCollection",
  "features": [
    {
      "type": "Feature",
      "properties": {
        "norad_id": 31357,
        "name": "FENGYUN 1C DEB",
        "group": "fengyun-1c-debris",
        "lat": 81.33797386433766,
        "lon": -79.8468082510656,
        "alt_km": 854.3156749291893,
        "timestamp": "2025-12-10T23:33:13.099099+00:00",
        "meta_object_name": "FENGYUN 1C DEB",
        "meta_object_id": "1999-025BRM",
        "meta_epoch": "2025-12-10T13:41:20.012928",
        "meta_mean_motion": 14.18526044,
        "meta_eccentricity": 0.00489909,
        "meta_inclination": 98.6117,
        "meta_ra_of_asc_node": 15.6369,
        "meta_arg_of_pericenter": 299.0665,
        "meta_mean_anomaly": 213.7352,
        "meta_ephemeris_type": 0,
        "meta_classification_type": "U",
        "meta_norad_cat_id": 31357,
        "meta_element_set_no": 999,
        "meta_rev_at_epoch": 96673,
        "meta_bstar": 6.101158e-05,
        "meta_mean_motion_dot": 8.5e-07,
        "meta_mean_motion_ddot": 0,
        "tle_line1": "1 31357U 99025BRM 25344.57037052  .00000085  00000+0  61012-4 0  9997",
        "tle_line2": "2 31357  98.6117  15.6369 0048990 299.0665 213.7352 14.18526044966739"
      },
      "geometry": {
        "type": "Point",
        "coordinates": [
          -79.8468082510656,
          81.33797386433766
        ]
      }
    },
    {
      "type": "Feature",
      "properties": {
        "norad_id": 31358,
        "name": "FENGYUN 1C DEB",
        "group": "fengyun-1c-debris",
        "lat": 76.80910174129606,
        "lon": -124.24011679435232,
        "alt_km": 481.8475016377961,
        "timestamp": "2025-12-10T23:33:13.099108+00:00",
        "meta_object_name": "FENGYUN 1C DEB",
        "meta_object_id": "1999-025BRN",
        "meta_epoch": "2025-12-10T07:22:39.614016",
        "meta_mean_motion": 15.17424985,
        "meta_eccentricity": 0.0043447,
        "meta_inclination": 98.9063,
        "meta_ra_of_asc_node": 276.9637,
        "meta_arg_of_pericenter": 120.5067,
        "meta_mean_anomaly": 240.0463,
        "meta_ephemeris_type": 0,
        "meta_classification_type": "U",
        "meta_norad_cat_id": 31358,
        "meta_element_set_no": 999,
        "meta_rev_at_epoch": 97533,
        "meta_bstar": 0.011524,
        "meta_mean_motion_dot": 0.00243511,
        "meta_mean_motion_ddot": 0,
        "tle_line1": "1 31358U 99025BRN 25344.30740294  .00243511  00000+0  11524-1 0  9991",
        "tle_line2": "2 31358  98.9063 276.9637 0043447 120.5067 240.0463 15.17424985975332"
      },
      "geometry": {
        "type": "Point",
        "coordinates": [
          -124.24011679435232,
          76.80910174129606
        ]
      }
    },
    {
      "type": "Feature",
      "properties": {
        "norad_id": 31361,
        "name": "FENGYUN 1C DEB",
        "group": "fengyun-1c-debris",
        "lat": -58.5194878222742,
        "lon": 126.13390396332758,
        "alt_km": 872.073752438886,
        "timestamp": "2025-12-10T23:33:13.099118+00:00",
        "meta_object_name": "FENGYUN 1C DEB",
        "meta_object_id": "1999-025BRR",
        "meta_epoch": "2025-12-10T03:47:55.285728",
        "meta_mean_motion": 14.17742789,
        "meta_eccentricity": 0.00461797,
        "meta_inclination": 98.5505,
        "meta_ra_of_asc_node": 319.5645,
        "meta_arg_of_pericenter": 77.942,
        "meta_mean_anomaly": 282.6925,
        "meta_ephemeris_type": 0,
        "meta_classification_type": "U",
        "meta_norad_cat_id": 31361,
        "meta_element_set_no": 999,
        "meta_rev_at_epoch": 96527,
        "meta_bstar": 0.00019181193,
        "meta_mean_motion_dot": 3.53e-06,
        "meta_mean_motion_ddot": 0,
        "tle_line1": "1 31361U 99025BRR 25344.15827877  .00000353  00000+0  19181-3 0  9995",
        "tle_line2": "2 31361  98.5505 319.5645 0046179  77.9420 282.6925 14.17742789965270"
      },
      "geometry": {
        "type": "Point",
        "coordinates": [
          126.13390396332758,
          -58.5194878222742
        ]
      }
    },
    {
      "type": "Feature",
      "properties": {
        "norad_id": 31362,
        "name": "FENGYUN 1C DEB",
        "group": "fengyun-1c-debris",
        "lat": -38.9317129640023,
        "lon": 152.31287360306777,
        "alt_km": 847.3664871300061,
        "timestamp": "2025-12-10T23:33:13.099127+00:00",
        "meta_object_name": "FENGYUN 1C DEB",
        "meta_object_id": "1999-025BRS",
        "meta_epoch": "2025-12-10T10:39:50.959584",
        "meta_mean_motion": 14.17376211,
        "meta_eccentricity": 0.00192276,
        "meta_inclination": 98.6524,
        "meta_ra_of_asc_node": 338.8556,
        "meta_arg_of_pericenter": 101.8518,
        "meta_mean_anomaly": 258.4815,
        "meta_ephemeris_type": 0,
        "meta_classification_type": "U",
        "meta_norad_cat_id": 31362,
        "meta_element_set_no": 999,
        "meta_rev_at_epoch": 96543,
        "meta_bstar": 0.00025687937,
        "meta_mean_motion_dot": 4.78e-06,
        "meta_mean_motion_ddot": 0,
        "tle_line1": "1 31362U 99025BRS 25344.44433981  .00000478  00000+0  25688-3 0  9994",
        "tle_line2": "2 31362  98.6524 338.8556 0019227 101.8518 258.4815 14.17376211965437"
      },
      "geometry": {
        "type": "Point",
        "coordinates": [
          152.31287360306777,
          -38.9317129640023
        ]
      }
    },
    {
      "type": "Feature",
      "properties": {
        "norad_id": 31364,
        "name": "FENGYUN 1C DEB",
        "group": "fengyun-1c-debris",
        "lat": -74.4913603435151,
        "lon": -111.46039925819149,
        "alt_km": 866.6735522168674,
        "timestamp": "2025-12-10T23:33:13.099136+00:00",
        "meta_object_name": "FENGYUN 1C DEB",
        "meta_object_id": "1999-025BRU",
        "meta_epoch": "2025-12-10T13:51:34.913952",
        "meta_mean_motion": 14.14613693,
        "meta_eccentricity": 0.00942676,
        "meta_inclination": 99.2624,
        "meta_ra_of_asc_node": 104.142,
        "meta_arg_of_pericenter": 154.6725,
        "meta_mean_anomaly": 205.9112,
        "meta_ephemeris_type": 0,
        "meta_classification_type": "U",
        "meta_norad_cat_id": 31364,
        "meta_element_set_no": 999,
        "meta_rev_at_epoch": 94846,
        "meta_bstar": 0.0049259525,
        "meta_mean_motion_dot": 9.845e-05,
        "meta_mean_motion_ddot": 0,
        "tle_line1": "1 31364U 99025BRU 25344.57748743  .00009845  00000+0  49260-2 0  9993",
        "tle_line2": "2 31364  99.2624 104.1420 0094267 154.6725 205.9112 14.14613693948460"
      },
      "geometry": {
        "type": "Point",
        "coordinates": [
          -111.46039925819149,
          -74.4913603435151
        ]
      }
    },
    {
      "type": "Feature",
      "properties": {
        "norad_id": 31365,
        "name": "FENGYUN 1C DEB",
        "group": "fengyun-1c-debris",
        "lat": 31.066095802594347,
        "lon": 64.72433979156399,
        "alt_km": 780.1330697275189,
        "timestamp": "2025-12-10T23:33:13.099145+00:00",
        "meta_object_name": "FENGYUN 1C DEB",
        "meta_object_id": "1999-025BRV",
        "meta_epoch": "2025-12-10T05:05:09.602016",
        "meta_mean_motion": 14.41788332,
        "meta_eccentricity": 0.0042239,
        "meta_inclination": 98.6742,
        "meta_ra_of_asc_node": 69.2197,
        "meta_arg_of_pericenter": 226.9919,
        "meta_mean_anomaly": 132.7727,
        "meta_ephemeris_type": 0,
        "meta_classification_type": "U",
        "meta_norad_cat_id": 31365,
        "meta_element_set_no": 999,
        "meta_rev_at_epoch": 96592,
        "meta_bstar": 0.0032642,
        "meta_mean_motion_dot": 0.00010746,
        "meta_mean_motion_ddot": 0,
        "tle_line1": "1 31365U 99025BRV 25344.21191669  .00010746  00000+0  32642-2 0  9992",
        "tle_line2": "2 31365  98.6742  69.2197 0042239 226.9919 132.7727 14.41788332965929"
      },
      "geometry": {
        "type": "Point",
        "coordinates": [
          64.72433979156399,
          31.066095802594347
        ]
      }
    },
    {
      "type": "Feature",
      "properties": {
        "norad_id": 31367,
        "name": "FENGYUN 1C DEB",
        "group": "fengyun-1c-debris",
        "lat": -74.23610084187482,
        "lon": 26.142443407186764,
        "alt_km": 781.1699474965762,
        "timestamp": "2025-12-10T23:33:13.099154+00:00",
        "meta_object_name": "FENGYUN 1C DEB",
        "meta_object_id": "1999-025BRX",
        "meta_epoch": "2025-12-10T15:52:07.050144",
        "meta_mean_motion": 14.47472535,
        "meta_eccentricity": 0.00995571,
        "meta_inclination": 98.7452,
        "meta_ra_of_asc_node": 238.8558,
        "meta_arg_of_pericenter": 22.6018,
        "meta_mean_anomaly": 7.5308,
        "meta_ephemeris_type": 0,
        "meta_classification_type": "U",
        "meta_norad_cat_id": 31367,
        "meta_element_set_no": 999,
        "meta_rev_at_epoch": 98436,
        "meta_bstar": 0.00097912882,
        "meta_mean_motion_dot": 3.777e-05,
        "meta_mean_motion_ddot": 0,
        "tle_line1": "1 31367U 99025BRX 25344.66119271  .00003777  00000+0  97913-3 0  9991",
        "tle_line2": "2 31367  98.7452 238.8558 0099557  22.6018   7.5308 14.47472535984365"
      },
      "geometry": {
        "type": "Point",
        "coordinates": [
          26.142443407186764,
          -74.23610084187482
        ]
      }
    }
  ]
}